HIMAWARI-8              
1 40267U 14060A   23307.89146904 -.00000274  00000+0  00000+0 0  9998
2 40267   0.0281 122.4768 0001141  93.7131 288.2909  1.00273932 33172
